start=new Date('2023-01-29T00:00:00.000Z').valueOf();
sats=[{"OBJECT_NAME":"STARLINK-4778","CENTER_NAME":"EARTH","TLE_LINE2":"2 53836  53.2192 355.7309 0001241 102.4482 257.6649 15.08843259 21412","REV_AT_EPOCH":"2141","OBJECT_TYPE":"PAYLOAD","EPOCH":"2023-01-28T07:23:19.681152","SITE":"AFETR","MEAN_MOTION_DOT":"0.00007757","ECCENTRICITY":"0.00012410","FILE":"3763924","EPHEMERIS_TYPE":"0","DECAY_DATE":null,"MEAN_MOTION":"15.08843259","COUNTRY_CODE":"US","ELEMENT_SET_NO":"999","BSTAR":"0.00050489000000","ARG_OF_PERICENTER":"102.4482","MEAN_ANOMALY":"257.6649","MEAN_ELEMENT_THEORY":"SGP4","NORAD_CAT_ID":"53836","PERIAPSIS":"538.877","REF_FRAME":"TEME","LAUNCH_DATE":"2022-09-19","GP_ID":"223883457","RA_OF_ASC_NODE":"355.7309","APOAPSIS":"540.594","TLE_LINE1":"1 53836U 22114U   23028.30786668  .00007757  00000-0  50489-3 0  9999","MEAN_MOTION_DDOT":"0.0000000000000","INCLINATION":"53.2192","OBJECT_ID":"2022-114U","CLASSIFICATION_TYPE":"U","PERIOD":"95.437","RCS_SIZE":"LARGE","TIME_SYSTEM":"UTC","SEMIMAJOR_AXIS":"6917.870"},{"MEAN_MOTION_DOT":"0.00001065","SITE":"AFETR","EPHEMERIS_TYPE":"0","FILE":"3764201","ECCENTRICITY":"0.00012630","TLE_LINE2":"2 53837  53.2179   2.7703 0001263  98.5892 261.5243 15.08836731 21364","CENTER_NAME":"EARTH","OBJECT_NAME":"STARLINK-4776","EPOCH":"2023-01-28T20:36:48.114144","OBJECT_TYPE":"PAYLOAD","REV_AT_EPOCH":"2136","MEAN_MOTION":"15.08836731","DECAY_DATE":null,"BSTAR":"0.00008498800000","COUNTRY_CODE":"US","ELEMENT_SET_NO":"999","LAUNCH_DATE":"2022-09-19","RA_OF_ASC_NODE":"2.7703","GP_ID":"223914263","ARG_OF_PERICENTER":"98.5892","MEAN_ANOMALY":"261.5243","PERIAPSIS":"538.882","REF_FRAME":"TEME","NORAD_CAT_ID":"53837","MEAN_ELEMENT_THEORY":"SGP4","SEMIMAJOR_AXIS":"6917.890","TIME_SYSTEM":"UTC","RCS_SIZE":"LARGE","PERIOD":"95.438","MEAN_MOTION_DDOT":"0.0000000000000","APOAPSIS":"540.629","TLE_LINE1":"1 53837U 22114V   23028.85889021  .00001065  00000-0  84988-4 0  9995","CLASSIFICATION_TYPE":"U","OBJECT_ID":"2022-114V","INCLINATION":"53.2179"},{"COUNTRY_CODE":"US","ELEMENT_SET_NO":"999","BSTAR":"0.00080259000000","MEAN_MOTION":"15.08848344","DECAY_DATE":null,"OBJECT_TYPE":"PAYLOAD","REV_AT_EPOCH":"2141","EPOCH":"2023-01-28T07:18:01.710144","OBJECT_NAME":"STARLINK-4773","CENTER_NAME":"EARTH","TLE_LINE2":"2 53838  53.2178 355.7154 0001519  93.6196 266.4970 15.08848344 21412","ECCENTRICITY":"0.00015190","FILE":"3763924","EPHEMERIS_TYPE":"0","MEAN_MOTION_DOT":"0.00012511","SITE":"AFETR","INCLINATION":"53.2178","OBJECT_ID":"2022-114W","CLASSIFICATION_TYPE":"U","APOAPSIS":"540.771","TLE_LINE1":"1 53838U 22114W   23028.30418646  .00012511  00000-0  80259-3 0  9991","MEAN_MOTION_DDOT":"0.0000000000000","RCS_SIZE":"LARGE","PERIOD":"95.437","SEMIMAJOR_AXIS":"6917.855","TIME_SYSTEM":"UTC","MEAN_ELEMENT_THEORY":"SGP4","PERIAPSIS":"538.669","REF_FRAME":"TEME","NORAD_CAT_ID":"53838","ARG_OF_PERICENTER":"93.6196","MEAN_ANOMALY":"266.4970","RA_OF_ASC_NODE":"355.7154","GP_ID":"223882464","LAUNCH_DATE":"2022-09-19"},{"CENTER_NAME":"EARTH","TLE_LINE2":"2 53839  53.2204 355.7618 0001131  89.2201 270.8921 15.08839045 21419","OBJECT_NAME":"STARLINK-4784","EPOCH":"2023-01-28T07:28:37.998624","OBJECT_TYPE":"PAYLOAD","REV_AT_EPOCH":"2141","MEAN_MOTION_DOT":"-0.00000913","SITE":"AFETR","EPHEMERIS_TYPE":"0","FILE":"3763924","ECCENTRICITY":"0.00011310","MEAN_MOTION":"15.08839045","DECAY_DATE":null,"BSTAR":"-0.00003929800000","ELEMENT_SET_NO":"999","COUNTRY_CODE":"US","ARG_OF_PERICENTER":"89.2201","MEAN_ANOMALY":"270.8921","PERIAPSIS":"538.966","REF_FRAME":"TEME","NORAD_CAT_ID":"53839","MEAN_ELEMENT_THEORY":"SGP4","LAUNCH_DATE":"2022-09-19","RA_OF_ASC_NODE":"355.7618","GP_ID":"223882712","MEAN_MOTION_DDOT":"0.0000000000000","TLE_LINE1":"1 53839U 22114X   23028.31155091 -.00000913  00000-0 -39298-4 0  9998","APOAPSIS":"540.531","OBJECT_ID":"2022-114X","CLASSIFICATION_TYPE":"U","INCLINATION":"53.2204","SEMIMAJOR_AXIS":"6917.883","TIME_SYSTEM":"UTC","RCS_SIZE":"LARGE","PERIOD":"95.438"},{"INCLINATION":"53.2196","CLASSIFICATION_TYPE":"U","OBJECT_ID":"2022-114Y","TLE_LINE1":"1 53840U 22114Y   23028.88929251  .00000401  00000-0  43253-4 0  9995","APOAPSIS":"540.561","MEAN_MOTION_DDOT":"0.0000000000000","RCS_SIZE":"LARGE","PERIOD":"95.438","SEMIMAJOR_AXIS":"6917.893","TIME_SYSTEM":"UTC","MEAN_ELEMENT_THEORY":"SGP4","PERIAPSIS":"538.955","REF_FRAME":"TEME","NORAD_CAT_ID":"53840","MEAN_ANOMALY":"240.0375","ARG_OF_PERICENTER":"120.0732","RA_OF_ASC_NODE":"352.9701","GP_ID":"223914513","LAUNCH_DATE":"2022-09-19","ELEMENT_SET_NO":"999","COUNTRY_CODE":"US","BSTAR":"0.00004325300000","MEAN_MOTION":"15.08835783","DECAY_DATE":null,"OBJECT_TYPE":"PAYLOAD","REV_AT_EPOCH":"2150","EPOCH":"2023-01-28T21:20:34.872864","OBJECT_NAME":"STARLINK-4766","TLE_LINE2":"2 53840  53.2196 352.9701 0001161 120.0732 240.0375 15.08835783 21506","CENTER_NAME":"EARTH","ECCENTRICITY":"0.00011610","FILE":"3764201","EPHEMERIS_TYPE":"0","MEAN_MOTION_DOT":"0.00000401","SITE":"AFETR"},{"ELEMENT_SET_NO":"999","COUNTRY_CODE":"US","BSTAR":"-0.00003222600000","MEAN_MOTION":"15.08843724","DECAY_DATE":null,"OBJECT_TYPE":"PAYLOAD","REV_AT_EPOCH":"2141","EPOCH":"2023-01-28T07:12:42.900192","OBJECT_NAME":"STARLINK-4750","CENTER_NAME":"EARTH","TLE_LINE2":"2 53841  53.2183 355.6890 0001381  99.9343 260.1805 15.08843724 21413","ECCENTRICITY":"0.00013810","FILE":"3763924","EPHEMERIS_TYPE":"0","MEAN_MOTION_DOT":"-0.00000801","SITE":"AFETR","INCLINATION":"53.2183","OBJECT_ID":"2022-114Z","CLASSIFICATION_TYPE":"U","APOAPSIS":"540.689","TLE_LINE1":"1 53841U 22114Z   23028.30049653 -.00000801  00000-0 -32226-4 0  9996","MEAN_MOTION_DDOT":"0.0000000000000","RCS_SIZE":"LARGE","PERIOD":"95.437","SEMIMAJOR_AXIS":"6917.869","TIME_SYSTEM":"UTC","MEAN_ELEMENT_THEORY":"SGP4","REF_FRAME":"TEME","PERIAPSIS":"538.779","NORAD_CAT_ID":"53841","MEAN_ANOMALY":"260.1805","ARG_OF_PERICENTER":"99.9343","RA_OF_ASC_NODE":"355.6890","GP_ID":"223883706","LAUNCH_DATE":"2022-09-19"},{"RCS_SIZE":"LARGE","PERIOD":"95.437","SEMIMAJOR_AXIS":"6917.863","TIME_SYSTEM":"UTC","TLE_LINE1":"1 53842U 22114AA  23028.28575962  .00000018  00000-0  19217-4 0  9994","APOAPSIS":"540.461","MEAN_MOTION_DDOT":"0.0000000000000","INCLINATION":"53.2196","OBJECT_ID":"2022-114AA","CLASSIFICATION_TYPE":"U","LAUNCH_DATE":"2022-09-19","RA_OF_ASC_NODE":"355.5980","GP_ID":"223881967","ARG_OF_PERICENTER":"86.4043","MEAN_ANOMALY":"273.7071","MEAN_ELEMENT_THEORY":"SGP4","REF_FRAME":"TEME","PERIAPSIS":"538.995","NORAD_CAT_ID":"53842","MEAN_MOTION":"15.08845748","DECAY_DATE":null,"COUNTRY_CODE":"US","ELEMENT_SET_NO":"999","BSTAR":"0.00001921700000","MEAN_MOTION_DOT":"0.00000018","SITE":"AFETR","ECCENTRICITY":"0.00010600","FILE":"3763924","EPHEMERIS_TYPE":"0","OBJECT_NAME":"STARLINK-4754","TLE_LINE2":"2 53842  53.2196 355.5980 0001060  86.4043 273.7071 15.08845748 21412","CENTER_NAME":"EARTH","OBJECT_TYPE":"PAYLOAD","REV_AT_EPOCH":"2141","EPOCH":"2023-01-28T06:51:29.631168"},{"MEAN_ANOMALY":"277.1003","ARG_OF_PERICENTER":"83.0141","MEAN_ELEMENT_THEORY":"SGP4","REF_FRAME":"TEME","PERIAPSIS":"538.810","NORAD_CAT_ID":"53843","LAUNCH_DATE":"2022-09-19","RA_OF_ASC_NODE":"355.6650","GP_ID":"223882216","TLE_LINE1":"1 53843U 22114AB  23028.29681299  .00000841  00000-0  70923-4 0  9992","APOAPSIS":"540.654","MEAN_MOTION_DDOT":"0.0000000000000","INCLINATION":"53.2201","OBJECT_ID":"2022-114AB","CLASSIFICATION_TYPE":"U","RCS_SIZE":"LARGE","PERIOD":"95.437","SEMIMAJOR_AXIS":"6917.867","TIME_SYSTEM":"UTC","OBJECT_NAME":"STARLINK-4769","TLE_LINE2":"2 53843  53.2201 355.6650 0001333  83.0141 277.1003 15.08844408 21415","CENTER_NAME":"EARTH","OBJECT_TYPE":"PAYLOAD","REV_AT_EPOCH":"2141","EPOCH":"2023-01-28T07:07:24.642336","MEAN_MOTION_DOT":"0.00000841","SITE":"AFETR","ECCENTRICITY":"0.00013330","FILE":"3763924","EPHEMERIS_TYPE":"0","MEAN_MOTION":"15.08844408","DECAY_DATE":null,"ELEMENT_SET_NO":"999","COUNTRY_CODE":"US","BSTAR":"0.00007092300000"},{"GP_ID":"223888873","RA_OF_ASC_NODE":"352.5850","LAUNCH_DATE":"2022-09-19","NORAD_CAT_ID":"53844","REF_FRAME":"TEME","PERIAPSIS":"538.163","MEAN_ELEMENT_THEORY":"SGP4","ARG_OF_PERICENTER":"111.7336","MEAN_ANOMALY":"248.3888","TIME_SYSTEM":"UTC","SEMIMAJOR_AXIS":"6917.805","PERIOD":"95.436","RCS_SIZE":"LARGE","OBJECT_ID":"2022-114AC","CLASSIFICATION_TYPE":"U","INCLINATION":"53.2198","MEAN_MOTION_DDOT":"0.0000000000000","TLE_LINE1":"1 53844U 22114AC  23028.94077346  .00000309  00000-0  37510-4 0  9991","APOAPSIS":"541.178","FILE":"3764144","EPHEMERIS_TYPE":"0","ECCENTRICITY":"0.00021790","SITE":"AFETR","MEAN_MOTION_DOT":"0.00000309","EPOCH":"2023-01-28T22:34:42.826944","REV_AT_EPOCH":"2097","OBJECT_TYPE":"PAYLOAD","TLE_LINE2":"2 53844  53.2198 352.5850 0002179 111.7336 248.3888 15.08864515 20975","CENTER_NAME":"EARTH","OBJECT_NAME":"STARLINK-4745","BSTAR":"0.00003751000000","ELEMENT_SET_NO":"999","COUNTRY_CODE":"US","DECAY_DATE":null,"MEAN_MOTION":"15.08864515"},{"EPOCH":"2023-01-28T21:15:16.523424","OBJECT_TYPE":"PAYLOAD","REV_AT_EPOCH":"2150","CENTER_NAME":"EARTH","TLE_LINE2":"2 53845  53.2189 352.9693 0001337 101.8916 258.2226 15.08840190 21503","OBJECT_NAME":"STARLINK-4753","FILE":"3764201","EPHEMERIS_TYPE":"0","ECCENTRICITY":"0.00013370","MEAN_MOTION_DOT":"0.00000759","SITE":"AFETR","BSTAR":"0.00006578000000","ELEMENT_SET_NO":"999","COUNTRY_CODE":"US","MEAN_MOTION":"15.08840190","DECAY_DATE":null,"REF_FRAME":"TEME","PERIAPSIS":"538.820","NORAD_CAT_ID":"53845","MEAN_ELEMENT_THEORY":"SGP4","ARG_OF_PERICENTER":"101.8916","MEAN_ANOMALY":"258.2226","RA_OF_ASC_NODE":"352.9693","GP_ID":"223914264","LAUNCH_DATE":"2022-09-19","CLASSIFICATION_TYPE":"U","OBJECT_ID":"2022-114AD","INCLINATION":"53.2189","MEAN_MOTION_DDOT":"0.0000000000000","TLE_LINE1":"1 53845U 22114AD  23028.88560791  .00000759  00000-0  65780-4 0  9995","APOAPSIS":"540.670","SEMIMAJOR_AXIS":"6917.880","TIME_SYSTEM":"UTC","RCS_SIZE":"LARGE","PERIOD":"95.438"}];
